[{"OBJECT_NAME":"ONEWEB-0646","OBJECT_ID":"2023-029Q","EPOCH":"2026-01-24T05:35:07.157472","MEAN_MOTION":13.19728202,"ECCENTRICITY":0.00014828,"INCLINATION":87.924,"RA_OF_ASC_NODE":333.6276,"ARG_OF_PERICENTER":83.0224,"MEAN_ANOMALY":277.1077,"EPHEMERIS_TYPE":0,"CLASSIFICATION_TYPE":"U","NORAD_CAT_ID":55810,"ELEMENT_SET_NO":999,"REV_AT_EPOCH":13990,"BSTAR":0.00015707247,"MEAN_MOTION_DOT":7.6e-7,"MEAN_MOTION_DDOT":0},{"OBJECT_NAME":"ONEWEB-0648","OBJECT_ID":"2023-029R","EPOCH":"2026-01-24T05:59:38.968512","MEAN_MOTION":13.14505078,"ECCENTRICITY":9.691e-5,"INCLINATION":87.9028,"RA_OF_ASC_NODE":318.3925,"ARG_OF_PERICENTER":49.5635,"MEAN_ANOMALY":310.5579,"EPHEMERIS_TYPE":0,"CLASSIFICATION_TYPE":"U","NORAD_CAT_ID":55811,"ELEMENT_SET_NO":999,"REV_AT_EPOCH":14048,"BSTAR":0.00057389994,"MEAN_MOTION_DOT":2.26e-6,"MEAN_MOTION_DDOT":0},{"OBJECT_NAME":"ONEWEB-0649","OBJECT_ID":"2023-029S","EPOCH":"2026-01-24T06:11:31.749504","MEAN_MOTION":13.19725808,"ECCENTRICITY":0.00013834,"INCLINATION":87.9241,"RA_OF_ASC_NODE":333.6193,"ARG_OF_PERICENTER":72.9617,"MEAN_ANOMALY":287.1667,"EPHEMERIS_TYPE":0,"CLASSIFICATION_TYPE":"U","NORAD_CAT_ID":55812,"ELEMENT_SET_NO":999,"REV_AT_EPOCH":13994,"BSTAR":9.7807e-7,"MEAN_MOTION_DOT":1.3e-7,"MEAN_MOTION_DDOT":0},{"OBJECT_NAME":"ONEWEB-0650","OBJECT_ID":"2023-029T","EPOCH":"2026-01-24T06:04:41.461824","MEAN_MOTION":13.1972729,"ECCENTRICITY":0.00012752,"INCLINATION":87.9235,"RA_OF_ASC_NODE":333.6245,"ARG_OF_PERICENTER":79.0074,"MEAN_ANOMALY":281.1202,"EPHEMERIS_TYPE":0,"CLASSIFICATION_TYPE":"U","NORAD_CAT_ID":55813,"ELEMENT_SET_NO":999,"REV_AT_EPOCH":13991,"BSTAR":7.0716496e-5,"MEAN_MOTION_DOT":4.1e-7,"MEAN_MOTION_DDOT":0},{"OBJECT_NAME":"ONEWEB-0652","OBJECT_ID":"2023-029U","EPOCH":"2026-01-24T05:32:16.120896","MEAN_MOTION":13.14504522,"ECCENTRICITY":0.00018676,"INCLINATION":87.9022,"RA_OF_ASC_NODE":318.4147,"ARG_OF_PERICENTER":78.9782,"MEAN_ANOMALY":281.1557,"EPHEMERIS_TYPE":0,"CLASSIFICATION_TYPE":"U","NORAD_CAT_ID":55814,"ELEMENT_SET_NO":999,"REV_AT_EPOCH":14045,"BSTAR":-0.00029278678,"MEAN_MOTION_DOT":-9.6e-7,"MEAN_MOTION_DDOT":0},{"OBJECT_NAME":"ONEWEB-0653","OBJECT_ID":"2023-029V","EPOCH":"2026-01-24T05:09:25.957728","MEAN_MOTION":13.14503973,"ECCENTRICITY":0.0001854,"INCLINATION":87.9026,"RA_OF_ASC_NODE":318.4074,"ARG_OF_PERICENTER":73.3962,"MEAN_ANOMALY":286.7371,"EPHEMERIS_TYPE":0,"CLASSIFICATION_TYPE":"U","NORAD_CAT_ID":55815,"ELEMENT_SET_NO":999,"REV_AT_EPOCH":14048,"BSTAR":-0.00038696229,"MEAN_MOTION_DOT":-1.31e-6,"MEAN_MOTION_DDOT":0},{"OBJECT_NAME":"ONEWEB-0654","OBJECT_ID":"2023-029W","EPOCH":"2026-01-24T05:02:34.582272","MEAN_MOTION":13.1450461,"ECCENTRICITY":0.00020644,"INCLINATION":87.9026,"RA_OF_ASC_NODE":318.4083,"ARG_OF_PERICENTER":77.5534,"MEAN_ANOMALY":282.5827,"EPHEMERIS_TYPE":0,"CLASSIFICATION_TYPE":"U","NORAD_CAT_ID":55816,"ELEMENT_SET_NO":999,"REV_AT_EPOCH":14050,"BSTAR":-9.936646e-5,"MEAN_MOTION_DOT":-2.4e-7,"MEAN_MOTION_DDOT":0},{"OBJECT_NAME":"ONEWEB-0656","OBJECT_ID":"2023-029X","EPOCH":"2026-01-24T04:34:13.431936","MEAN_MOTION":13.20772977,"ECCENTRICITY":0.00021322,"INCLINATION":87.923,"RA_OF_ASC_NODE":303.1589,"ARG_OF_PERICENTER":77.8655,"MEAN_ANOMALY":282.2717,"EPHEMERIS_TYPE":0,"CLASSIFICATION_TYPE":"U","NORAD_CAT_ID":55817,"ELEMENT_SET_NO":999,"REV_AT_EPOCH":14214,"BSTAR":0.00041907117,"MEAN_MOTION_DOT":1.83e-6,"MEAN_MOTION_DDOT":0},{"OBJECT_NAME":"ONEWEB-0657","OBJECT_ID":"2023-029Y","EPOCH":"2026-01-24T05:57:52.369056","MEAN_MOTION":13.19721711,"ECCENTRICITY":0.00022419,"INCLINATION":87.923,"RA_OF_ASC_NODE":333.625,"ARG_OF_PERICENTER":96.4497,"MEAN_ANOMALY":263.6891,"EPHEMERIS_TYPE":0,"CLASSIFICATION_TYPE":"U","NORAD_CAT_ID":55818,"ELEMENT_SET_NO":999,"REV_AT_EPOCH":13992,"BSTAR":0.00039884524,"MEAN_MOTION_DOT":1.73e-6,"MEAN_MOTION_DDOT":0},{"OBJECT_NAME":"ONEWEB-0658","OBJECT_ID":"2023-029Z","EPOCH":"2026-01-24T05:51:03.404160","MEAN_MOTION":13.19725536,"ECCENTRICITY":0.00013468,"INCLINATION":87.9249,"RA_OF_ASC_NODE":333.5873,"ARG_OF_PERICENTER":83.7691,"MEAN_ANOMALY":276.3595,"EPHEMERIS_TYPE":0,"CLASSIFICATION_TYPE":"U","NORAD_CAT_ID":55819,"ELEMENT_SET_NO":999,"REV_AT_EPOCH":13993,"BSTAR":-8.7320421e-5,"MEAN_MOTION_DOT":-2.2e-7,"MEAN_MOTION_DDOT":0},{"OBJECT_NAME":"ONEWEB-0660","OBJECT_ID":"2023-029AA","EPOCH":"2026-01-24T04:30:37.437120","MEAN_MOTION":13.14504086,"ECCENTRICITY":0.00017015,"INCLINATION":87.9028,"RA_OF_ASC_NODE":318.3951,"ARG_OF_PERICENTER":74.3557,"MEAN_ANOMALY":285.776,"EPHEMERIS_TYPE":0,"CLASSIFICATION_TYPE":"U","NORAD_CAT_ID":55820,"ELEMENT_SET_NO":999,"REV_AT_EPOCH":14048,"BSTAR":-0.00051898051,"MEAN_MOTION_DOT":-1.8e-6,"MEAN_MOTION_DDOT":0},{"OBJECT_NAME":"ONEWEB-0661","OBJECT_ID":"2023-029AB","EPOCH":"2026-01-24T05:20:51.670464","MEAN_MOTION":13.14504004,"ECCENTRICITY":0.00017226,"INCLINATION":87.9021,"RA_OF_ASC_NODE":318.4493,"ARG_OF_PERICENTER":66.635,"MEAN_ANOMALY":293.4961,"EPHEMERIS_TYPE":0,"CLASSIFICATION_TYPE":"U","NORAD_CAT_ID":55821,"ELEMENT_SET_NO":999,"REV_AT_EPOCH":14047,"BSTAR":-0.00033838616,"MEAN_MOTION_DOT":-1.13e-6,"MEAN_MOTION_DDOT":0},{"OBJECT_NAME":"ONEWEB-0662","OBJECT_ID":"2023-029AC","EPOCH":"2026-01-24T06:11:04.270848","MEAN_MOTION":13.14505038,"ECCENTRICITY":0.00015782,"INCLINATION":87.9022,"RA_OF_ASC_NODE":318.4494,"ARG_OF_PERICENTER":67.4219,"MEAN_ANOMALY":292.7078,"EPHEMERIS_TYPE":0,"CLASSIFICATION_TYPE":"U","NORAD_CAT_ID":55822,"ELEMENT_SET_NO":999,"REV_AT_EPOCH":14052,"BSTAR":0.00084854594,"MEAN_MOTION_DOT":3.27e-6,"MEAN_MOTION_DDOT":0},{"OBJECT_NAME":"ONEWEB-0663","OBJECT_ID":"2023-029AD","EPOCH":"2026-01-23T05:59:49.555104","MEAN_MOTION":13.20729348,"ECCENTRICITY":0.00031711,"INCLINATION":87.9195,"RA_OF_ASC_NODE":303.4171,"ARG_OF_PERICENTER":55.29,"MEAN_ANOMALY":304.8532,"EPHEMERIS_TYPE":0,"CLASSIFICATION_TYPE":"U","NORAD_CAT_ID":55823,"ELEMENT_SET_NO":999,"REV_AT_EPOCH":14201,"BSTAR":-0.042929753,"MEAN_MOTION_DOT":-0.00017398,"MEAN_MOTION_DDOT":0},{"OBJECT_NAME":"ONEWEB-0664","OBJECT_ID":"2023-029AE","EPOCH":"2026-01-24T06:05:06.878112","MEAN_MOTION":13.2077403,"ECCENTRICITY":0.0001932,"INCLINATION":87.9222,"RA_OF_ASC_NODE":303.2148,"ARG_OF_PERICENTER":67.3791,"MEAN_ANOMALY":292.7546,"EPHEMERIS_TYPE":0,"CLASSIFICATION_TYPE":"U","NORAD_CAT_ID":55824,"ELEMENT_SET_NO":999,"REV_AT_EPOCH":14214,"BSTAR":0.00024269698,"MEAN_MOTION_DOT":1.12e-6,"MEAN_MOTION_DDOT":0},{"OBJECT_NAME":"ONEWEB-0665","OBJECT_ID":"2023-029AF","EPOCH":"2026-01-24T05:16:15.092832","MEAN_MOTION":13.14509581,"ECCENTRICITY":0.00015953,"INCLINATION":87.9026,"RA_OF_ASC_NODE":318.4295,"ARG_OF_PERICENTER":69.7263,"MEAN_ANOMALY":290.4038,"EPHEMERIS_TYPE":0,"CLASSIFICATION_TYPE":"U","NORAD_CAT_ID":55825,"ELEMENT_SET_NO":999,"REV_AT_EPOCH":14049,"BSTAR":-0.0048350395,"MEAN_MOTION_DOT":-1.78e-5,"MEAN_MOTION_DDOT":0},{"OBJECT_NAME":"ONEWEB-0666","OBJECT_ID":"2023-029AG","EPOCH":"2026-01-24T05:56:01.997376","MEAN_MOTION":13.20773201,"ECCENTRICITY":0.00021337,"INCLINATION":87.9224,"RA_OF_ASC_NODE":303.2058,"ARG_OF_PERICENTER":94.5768,"MEAN_ANOMALY":265.5609,"EPHEMERIS_TYPE":0,"CLASSIFICATION_TYPE":"U","NORAD_CAT_ID":55826,"ELEMENT_SET_NO":999,"REV_AT_EPOCH":14215,"BSTAR":0.00014410648,"MEAN_MOTION_DOT":7.2e-7,"MEAN_MOTION_DDOT":0},{"OBJECT_NAME":"ONEWEB-0667","OBJECT_ID":"2023-029AH","EPOCH":"2026-01-24T05:46:57.024192","MEAN_MOTION":13.2077241,"ECCENTRICITY":0.00016595,"INCLINATION":87.9232,"RA_OF_ASC_NODE":303.144,"ARG_OF_PERICENTER":70.4508,"MEAN_ANOMALY":289.6805,"EPHEMERIS_TYPE":0,"CLASSIFICATION_TYPE":"U","NORAD_CAT_ID":55827,"ELEMENT_SET_NO":999,"REV_AT_EPOCH":14214,"BSTAR":0.00015890748,"MEAN_MOTION_DOT":7.8e-7,"MEAN_MOTION_DDOT":0},{"OBJECT_NAME":"ONEWEB-0669","OBJECT_ID":"2023-029AJ","EPOCH":"2026-01-24T05:40:08.146560","MEAN_MOTION":13.20772102,"ECCENTRICITY":0.00023271,"INCLINATION":87.9222,"RA_OF_ASC_NODE":303.1746,"ARG_OF_PERICENTER":73.8873,"MEAN_ANOMALY":286.2516,"EPHEMERIS_TYPE":0,"CLASSIFICATION_TYPE":"U","NORAD_CAT_ID":55828,"ELEMENT_SET_NO":999,"REV_AT_EPOCH":14214,"BSTAR":0.00014888011,"MEAN_MOTION_DOT":7.4e-7,"MEAN_MOTION_DDOT":0},{"OBJECT_NAME":"ONEWEB-0670","OBJECT_ID":"2023-029AK","EPOCH":"2026-01-24T04:44:19.047552","MEAN_MOTION":13.14502026,"ECCENTRICITY":0.00018453,"INCLINATION":87.9023,"RA_OF_ASC_NODE":318.453,"ARG_OF_PERICENTER":65.6139,"MEAN_ANOMALY":294.5183,"EPHEMERIS_TYPE":0,"CLASSIFICATION_TYPE":"U","NORAD_CAT_ID":55829,"ELEMENT_SET_NO":999,"REV_AT_EPOCH":14051,"BSTAR":0.00063518179,"MEAN_MOTION_DOT":2.48e-6,"MEAN_MOTION_DDOT":0},{"OBJECT_NAME":"ONEWEB-0671","OBJECT_ID":"2023-029AL","EPOCH":"2026-01-24T05:44:14.032320","MEAN_MOTION":13.19726291,"ECCENTRICITY":0.00016963,"INCLINATION":87.9241,"RA_OF_ASC_NODE":333.6264,"ARG_OF_PERICENTER":73.7126,"MEAN_ANOMALY":286.4193,"EPHEMERIS_TYPE":0,"CLASSIFICATION_TYPE":"U","NORAD_CAT_ID":55830,"ELEMENT_SET_NO":999,"REV_AT_EPOCH":13991,"BSTAR":0.00014849711,"MEAN_MOTION_DOT":7.2e-7,"MEAN_MOTION_DDOT":0},{"OBJECT_NAME":"ONEWEB-0672","OBJECT_ID":"2023-029AM","EPOCH":"2026-01-24T05:33:18.618336","MEAN_MOTION":13.20773185,"ECCENTRICITY":0.00019302,"INCLINATION":87.9228,"RA_OF_ASC_NODE":303.1581,"ARG_OF_PERICENTER":81.0138,"MEAN_ANOMALY":279.1214,"EPHEMERIS_TYPE":0,"CLASSIFICATION_TYPE":"U","NORAD_CAT_ID":55831,"ELEMENT_SET_NO":999,"REV_AT_EPOCH":14214,"BSTAR":0.00014913578,"MEAN_MOTION_DOT":7.4e-7,"MEAN_MOTION_DDOT":0},{"OBJECT_NAME":"ONEWEB-0673","OBJECT_ID":"2023-029AN","EPOCH":"2026-01-24T05:11:14.987616","MEAN_MOTION":13.19726547,"ECCENTRICITY":0.00017445,"INCLINATION":87.924,"RA_OF_ASC_NODE":333.6152,"ARG_OF_PERICENTER":74.6016,"MEAN_ANOMALY":285.531,"EPHEMERIS_TYPE":0,"CLASSIFICATION_TYPE":"U","NORAD_CAT_ID":55832,"ELEMENT_SET_NO":999,"REV_AT_EPOCH":13991,"BSTAR":-7.3268551e-5,"MEAN_MOTION_DOT":-1.6e-7,"MEAN_MOTION_DDOT":0}]
